CTC2_L_00641001-01
1 10000U 23002RM  26075.70050926  .00000000  00000+0  00000-0 0  9996
2 10000  55.0000   0.0000 0000000   0.0000   0.0000  3.95927803    10
CTC2_L_00641001-02
1 10001U 22975LT  26075.70050926  .00000000  00000+0  00000-0 0  9995
2 10001  55.0000   0.0000 0000000   0.0000  36.0000  3.95927803    10
CTC2_L_00641001-03
1 10002U 25215YL  26075.70050926  .00000000  00000+0  00000-0 0  9996
2 10002  55.0000   0.0000 0000000   0.0000  72.0000  3.95927803    11
CTC2_L_00641001-04
1 10003U 25744OR  26075.70050926  .00000000  00000+0  00000-0 0  9994
2 10003  55.0000   0.0000 0000000   0.0000 108.0000  3.95927803    12
CTC2_L_00641001-05
1 10004U 25932V   26075.70050926  .00000000  00000+0  00000-0 0  9994
2 10004  55.0000   0.0000 0000000   0.0000 144.0000  3.95927803    13
CTC2_L_00641001-06
1 10005U 23177AC  26075.70050926  .00000000  00000+0  00000-0 0  9994
2 10005  55.0000   0.0000 0000000   0.0000 180.0000  3.95927803    14
CTC2_L_00641001-07
1 10006U 23972CF  26075.70050926  .00000000  00000+0  00000-0 0  9998
2 10006  55.0000   0.0000 0000000   0.0000 216.0000  3.95927803    15
CTC2_L_00641001-08
1 10007U 22364WM  26075.70050926  .00000000  00000+0  00000-0 0  9993
2 10007  55.0000   0.0000 0000000   0.0000 252.0000  3.95927803    16
CTC2_L_00641001-09
1 10008U 22639CH  26075.70050926  .00000000  00000+0  00000-0 0  9999
2 10008  55.0000   0.0000 0000000   0.0000 288.0000  3.95927803    16
CTC2_L_00641001-10
1 10009U 26316PJ  26075.70050926  .00000000  00000+0  00000-0 0  9996
2 10009  55.0000   0.0000 0000000   0.0000 324.0000  3.95927803    18
CTC2_L_00641002-01
1 10010U 24406UW  26075.70050926  .00000000  00000+0  00000-0 0  9996
2 10010  55.0000  30.0000 0000000   0.0000  12.0000  3.95927803    17
CTC2_L_00641002-02
1 10011U 24966TR  26075.70050926  .00000000  00000+0  00000-0 0  9998
2 10011  55.0000  30.0000 0000000   0.0000  48.0000  3.95927803    17
CTC2_L_00641002-03
1 10012U 24674FE  26075.70050926  .00000000  00000+0  00000-0 0  9995
2 10012  55.0000  30.0000 0000000   0.0000  84.0000  3.95927803    18
CTC2_L_00641002-04
1 10013U 26146FC  26075.70050926  .00000000  00000+0  00000-0 0  9992
2 10013  55.0000  30.0000 0000000   0.0000 120.0000  3.95927803    10
CTC2_L_00641002-05
1 10014U 26636JF  26075.70050926  .00000000  00000+0  00000-0 0  9997
2 10014  55.0000  30.0000 0000000   0.0000 156.0000  3.95927803    10
CTC2_L_00641002-06
1 10015U 22433VO  26075.70050926  .00000000  00000+0  00000-0 0  9999
2 10015  55.0000  30.0000 0000000   0.0000 192.0000  3.95927803    11
CTC2_L_00641002-07
1 10016U 24485FD  26075.70050926  .00000000  00000+0  00000-0 0  9999
2 10016  55.0000  30.0000 0000000   0.0000 228.0000  3.95927803    12
CTC2_L_00641002-08
1 10017U 24781CF  26075.70050926  .00000000  00000+0  00000-0 0  9999
2 10017  55.0000  30.0000 0000000   0.0000 264.0000  3.95927803    13
CTC2_L_00641002-09
1 10018U 24677MY  26075.70050926  .00000000  00000+0  00000-0 0  9994
2 10018  55.0000  30.0000 0000000   0.0000 300.0000  3.95927803    15
CTC2_L_00641002-10
1 10019U 24156E   26075.70050926  .00000000  00000+0  00000-0 0  9997
2 10019  55.0000  30.0000 0000000   0.0000 336.0000  3.95927803    15
CTC2_L_00641003-01
1 10020U 26374NZ  26075.70050926  .00000000  00000+0  00000-0 0  9993
2 10020  55.0000  60.0000 0000000   0.0000  24.0000  3.95927803    14
CTC2_L_00641003-02
1 10021U 23159QN  26075.70050926  .00000000  00000+0  00000-0 0  9992
2 10021  55.0000  60.0000 0000000   0.0000  60.0000  3.95927803    15
CTC2_L_00641003-03
1 10022U 22715YQ  26075.70050926  .00000000  00000+0  00000-0 0  9990
2 10022  55.0000  60.0000 0000000   0.0000  96.0000  3.95927803    15
CTC2_L_00641003-04
1 10023U 24756ZT  26075.70050926  .00000000  00000+0  00000-0 0  9998
2 10023  55.0000  60.0000 0000000   0.0000 132.0000  3.95927803    17
CTC2_L_00641003-05
1 10024U 26938TK  26075.70050926  .00000000  00000+0  00000-0 0  9993
2 10024  55.0000  60.0000 0000000   0.0000 168.0000  3.95927803    17
CTC2_L_00641003-06
1 10025U 22434TN  26075.70050926  .00000000  00000+0  00000-0 0  9991
2 10025  55.0000  60.0000 0000000   0.0000 204.0000  3.95927803    19
CTC2_L_00641003-07
1 10026U 22616BC  26075.70050926  .00000000  00000+0  00000-0 0  9994
2 10026  55.0000  60.0000 0000000   0.0000 240.0000  3.95927803    10
CTC2_L_00641003-08
1 10027U 26472IO  26075.70050926  .00000000  00000+0  00000-0 0  9999
2 10027  55.0000  60.0000 0000000   0.0000 276.0000  3.95927803    10
CTC2_L_00641003-09
1 10028U 24354DR  26075.70050926  .00000000  00000+0  00000-0 0  9997
2 10028  55.0000  60.0000 0000000   0.0000 312.0000  3.95927803    12
CTC2_L_00641003-10
1 10029U 25710XN  26075.70050926  .00000000  00000+0  00000-0 0  9995
2 10029  55.0000  60.0000 0000000   0.0000 348.0000  3.95927803    12
CTC2_L_00641004-01
1 10030U 24318GO  26075.70050926  .00000000  00000+0  00000-0 0  9990
2 10030  55.0000  90.0000 0000000   0.0000  36.0000  3.95927803    11
CTC2_L_00641004-02
1 10031U 22969DT  26075.70050926  .00000000  00000+0  00000-0 0  9991
2 10031  55.0000  90.0000 0000000   0.0000  72.0000  3.95927803    12
CTC2_L_00641004-03
1 10032U 24679VN  26075.70050926  .00000000  00000+0  00000-0 0  9992
2 10032  55.0000  90.0000 0000000   0.0000 108.0000  3.95927803    13
CTC2_L_00641004-04
1 10033U 24302PN  26075.70050926  .00000000  00000+0  00000-0 0  9996
2 10033  55.0000  90.0000 0000000   0.0000 144.0000  3.95927803    14
CTC2_L_00641004-05
1 10034U 23302NF  26075.70050926  .00000000  00000+0  00000-0 0  9996
2 10034  55.0000  90.0000 0000000   0.0000 180.0000  3.95927803    15
CTC2_L_00641004-06
1 10035U 25002AW  26075.70050926  .00000000  00000+0  00000-0 0  9996
2 10035  55.0000  90.0000 0000000   0.0000 216.0000  3.95927803    16
CTC2_L_00641004-07
1 10036U 25928AQ  26075.70050926  .00000000  00000+0  00000-0 0  9994
2 10036  55.0000  90.0000 0000000   0.0000 252.0000  3.95927803    17
CTC2_L_00641004-08
1 10037U 24447WY  26075.70050926  .00000000  00000+0  00000-0 0  9990
2 10037  55.0000  90.0000 0000000   0.0000 288.0000  3.95927803    17
CTC2_L_00641004-09
1 10038U 25685U   26075.70050926  .00000000  00000+0  00000-0 0  9996
2 10038  55.0000  90.0000 0000000   0.0000 324.0000  3.95927803    19
CTC2_L_00641004-10
1 10039U 24172CY  26075.70050926  .00000000  00000+0  00000-0 0  9997
2 10039  55.0000  90.0000 0000000   0.0000   0.0000  3.95927803    11
CTC2_L_00641005-01
1 10040U 26364TM  26075.70050926  .00000000  00000+0  00000-0 0  9994
2 10040  55.0000 120.0000 0000000   0.0000  48.0000  3.95927803    19
CTC2_L_00641005-02
1 10041U 25938PB  26075.70050926  .00000000  00000+0  00000-0 0  9991
2 10041  55.0000 120.0000 0000000   0.0000  84.0000  3.95927803    10
CTC2_L_00641005-03
1 10042U 24976JO  26075.70050926  .00000000  00000+0  00000-0 0  9993
2 10042  55.0000 120.0000 0000000   0.0000 120.0000  3.95927803    12
CTC2_L_00641005-04
1 10043U 25590AZ  26075.70050926  .00000000  00000+0  00000-0 0  9997
2 10043  55.0000 120.0000 0000000   0.0000 156.0000  3.95927803    12
CTC2_L_00641005-05
1 10044U 26181XE  26075.70050926  .00000000  00000+0  00000-0 0  9995
2 10044  55.0000 120.0000 0000000   0.0000 192.0000  3.95927803    13
CTC2_L_00641005-06
1 10045U 24395WG  26075.70050926  .00000000  00000+0  00000-0 0  9991
2 10045  55.0000 120.0000 0000000   0.0000 228.0000  3.95927803    14
CTC2_L_00641005-07
1 10046U 25471ZR  26075.70050926  .00000000  00000+0  00000-0 0  9998
2 10046  55.0000 120.0000 0000000   0.0000 264.0000  3.95927803    15
CTC2_L_00641005-08
1 10047U 23344IC  26075.70050926  .00000000  00000+0  00000-0 0  9996
2 10047  55.0000 120.0000 0000000   0.0000 300.0000  3.95927803    17
CTC2_L_00641005-09
1 10048U 26282ZD  26075.70050926  .00000000  00000+0  00000-0 0  9991
2 10048  55.0000 120.0000 0000000   0.0000 336.0000  3.95927803    17
CTC2_L_00641005-10
1 10049U 23269HY  26075.70050926  .00000000  00000+0  00000-0 0  9994
2 10049  55.0000 120.0000 0000000   0.0000  12.0000  3.95927803    19
CTC2_L_00641006-01
1 10050U 22100RP  26075.70050926  .00000000  00000+0  00000-0 0  9999
2 10050  55.0000 150.0000 0000000   0.0000  60.0000  3.95927803    17
CTC2_L_00641006-02
1 10051U 24780QY  26075.70050926  .00000000  00000+0  00000-0 0  9996
2 10051  55.0000 150.0000 0000000   0.0000  96.0000  3.95927803    17
CTC2_L_00641006-03
1 10052U 25723DB  26075.70050926  .00000000  00000+0  00000-0 0  9995
2 10052  55.0000 150.0000 0000000   0.0000 132.0000  3.95927803    19
CTC2_L_00641006-04
1 10053U 22205XL  26075.70050926  .00000000  00000+0  00000-0 0  9998
2 10053  55.0000 150.0000 0000000   0.0000 168.0000  3.95927803    19
CTC2_L_00641006-05
1 10054U 24032QZ  26075.70050926  .00000000  00000+0  00000-0 0  9999
2 10054  55.0000 150.0000 0000000   0.0000 204.0000  3.95927803    11
CTC2_L_00641006-06
1 10055U 25655FK  26075.70050926  .00000000  00000+0  00000-0 0  9992
2 10055  55.0000 150.0000 0000000   0.0000 240.0000  3.95927803    12
CTC2_L_00641006-07
1 10056U 26748ZN  26075.70050926  .00000000  00000+0  00000-0 0  9997
2 10056  55.0000 150.0000 0000000   0.0000 276.0000  3.95927803    12
CTC2_L_00641006-08
1 10057U 23137GG  26075.70050926  .00000000  00000+0  00000-0 0  9997
2 10057  55.0000 150.0000 0000000   0.0000 312.0000  3.95927803    14
CTC2_L_00641006-09
1 10058U 26774SX  26075.70050926  .00000000  00000+0  00000-0 0  9998
2 10058  55.0000 150.0000 0000000   0.0000 348.0000  3.95927803    14
CTC2_L_00641006-10
1 10059U 23519XP  26075.70050926  .00000000  00000+0  00000-0 0  9993
2 10059  55.0000 150.0000 0000000   0.0000  24.0000  3.95927803    16
CTC2_L_00641007-01
1 10060U 26132CP  26075.70050926  .00000000  00000+0  00000-0 0  9999
2 10060  55.0000 180.0000 0000000   0.0000  72.0000  3.95927803    14
CTC2_L_00641007-02
1 10061U 26034MT  26075.70050926  .00000000  00000+0  00000-0 0  9991
2 10061  55.0000 180.0000 0000000   0.0000 108.0000  3.95927803    15
